[{"OBJECT_NAME":"TRANSPORTER-10 OBJECT AD","OBJECT_ID":"2024-043AD","EPOCH":"2026-03-09T20:38:52.416960","MEAN_MOTION":15.34189901,"ECCENTRICITY":0.00089841,"INCLINATION":97.547,"RA_OF_ASC_NODE":207.3753,"ARG_OF_PERICENTER":221.4908,"MEAN_ANOMALY":138.5653,"EPHEMERIS_TYPE":0,"CLASSIFICATION_TYPE":"U","NORAD_CAT_ID":59125,"ELEMENT_SET_NO":999,"REV_AT_EPOCH":11202,"BSTAR":0.00036310552,"MEAN_MOTION_DOT":0.00011954,"MEAN_MOTION_DDOT":0},{"OBJECT_NAME":"STARLINK-33742","OBJECT_ID":"2025-063D","EPOCH":"2026-03-09T09:03:17.135424","MEAN_MOTION":15.3020348,"ECCENTRICITY":0.00013424,"INCLINATION":53.1595,"RA_OF_ASC_NODE":53.7714,"ARG_OF_PERICENTER":80.6769,"MEAN_ANOMALY":279.4384,"EPHEMERIS_TYPE":0,"CLASSIFICATION_TYPE":"U","NORAD_CAT_ID":63366,"ELEMENT_SET_NO":999,"REV_AT_EPOCH":5466,"BSTAR":0.0012602432,"MEAN_MOTION_DOT":0.00037156,"MEAN_MOTION_DDOT":0}]
